STAR ONE C3             
1 38991U 12062A   26074.26677802 -.00000250  00000+0  00000+0 0  9994
2 38991   0.0474 277.1659 0002263  97.9155 178.8294  1.00271986 48828
EUTELSAT 21B            
1 38992U 12062B   26074.21460448  .00000129  00000+0  00000+0 0  9990
2 38992   0.0687 353.1960 0002923 354.7573 283.7037  1.00270035 48887
ECHOSTAR 16             
1 39008U 12065A   26074.12681076 -.00000283  00000+0  00000+0 0  9996
2 39008   0.0030 153.7793 0001956 188.8725 174.2308  1.00274439 48704
ZHONGXING-12            
1 39017U 12067A   26074.01371030 -.00000207  00000+0  00000+0 0  9998
2 39017   0.0314 112.8654 0003374 246.3225 265.8651  1.00271863 48562
EUTELSAT 70B            
1 39020U 12069A   26074.21780696 -.00000044  00000+0  00000+0 0  9997
2 39020   0.0644   2.7145 0001953 338.0688 340.9200  1.00271748 48564
YAMAL 402               
1 39022U 12070A   26074.22119118  .00000086  00000+0  00000+0 0  9992
2 39022   1.0211  85.4276 0003969 268.8444 313.0700  1.00271739 48453
SKYNET 5D               
1 39034U 12075A   26074.22075785  .00000099  00000+0  00000+0 0  9995
2 39034   0.0703 359.6167 0003920 356.3484 309.0462  1.00272908 48213
MEXSAT 3                
1 39035U 12075B   26074.18756435 -.00000026  00000+0  00000+0 0  9990
2 39035   0.0101 168.2804 0001346 187.7053 129.4987  1.00272068  6112
TDRS 11                 
1 39070U 13004A   26074.31270502  .00000081  00000+0  00000+0 0  9993
2 39070   3.3836  29.5646 0004218 343.0970  98.5456  1.00266182 45751
AMAZONAS 3              
1 39078U 13006A   26074.05557046 -.00000283  00000+0  00000+0 0  9990
2 39078   0.0302 217.7446 0002210 121.9076 152.0016  1.00271190 43975
AZERSPACE 1             
1 39079U 13006B   26074.21937117  .00000000  00000+0  00000+0 0  9996
2 39079   0.0255 148.0647 0001120 240.9963 268.7350  1.00270931 47868
SBIRS GEO-2 (USA 241)   
1 39120U 13011A   26073.91516987 -.00000284  00000+0  00000+0 0  9998
2 39120   4.2851  52.3948 0002298 299.3680 100.4104  1.00271709 47598
EUTELSAT 117 WEST A     
1 39122U 13012A   26074.25845799 -.00000014  00000+0  00000+0 0  9996
2 39122   0.0327 292.3910 0002890  71.5336 145.1711  1.00272726 47492
ANIK G1                 
1 39127U 13014A   26074.26036466 -.00000075  00000+0  00000+0 0  9994
2 39127   0.0267 249.7091 0002690  85.2084 184.3661  1.00272155 47312
ZHONGXING-11            
1 39157U 13020A   26072.87474187 -.00000290  00000+0  00000+0 0  9994
2 39157   0.0296  21.4968 0001017  20.1576 182.6440  1.00269050 46945
EUTELSAT 7B             
1 39163U 13022A   26074.21165780  .00000047  00000+0  00000+0 0  9998
2 39163   0.0667 352.9787 0006262   6.7879 256.2307  1.00271407 47005
WGS F5 (USA 243)        
1 39168U 13024A   26074.27119804 -.00000285  00000+0  00000+0 0  9992
2 39168   0.0086 155.4657 0000295 266.5733 155.9690  1.00271523 46235
