[{"OBJECT_NAME":"STAR ONE C3","OBJECT_ID":"2012-062A","EPOCH":"2026-03-15T06:24:09.620928","MEAN_MOTION":1.00271986,"ECCENTRICITY":0.00022636,"INCLINATION":0.0474,"RA_OF_ASC_NODE":277.1659,"ARG_OF_PERICENTER":97.9155,"MEAN_ANOMALY":178.8294,"EPHEMERIS_TYPE":0,"CLASSIFICATION_TYPE":"U","NORAD_CAT_ID":38991,"ELEMENT_SET_NO":999,"REV_AT_EPOCH":4882,"BSTAR":0,"MEAN_MOTION_DOT":-2.5e-6,"MEAN_MOTION_DDOT":0},{"OBJECT_NAME":"EUTELSAT 21B","OBJECT_ID":"2012-062B","EPOCH":"2026-03-15T05:09:01.827072","MEAN_MOTION":1.00270035,"ECCENTRICITY":0.00029235,"INCLINATION":0.0687,"RA_OF_ASC_NODE":353.196,"ARG_OF_PERICENTER":354.7573,"MEAN_ANOMALY":283.7037,"EPHEMERIS_TYPE":0,"CLASSIFICATION_TYPE":"U","NORAD_CAT_ID":38992,"ELEMENT_SET_NO":999,"REV_AT_EPOCH":4888,"BSTAR":0,"MEAN_MOTION_DOT":1.29e-6,"MEAN_MOTION_DDOT":0},{"OBJECT_NAME":"ECHOSTAR 16","OBJECT_ID":"2012-065A","EPOCH":"2026-03-15T03:02:36.449664","MEAN_MOTION":1.00274439,"ECCENTRICITY":0.00019569,"INCLINATION":0.003,"RA_OF_ASC_NODE":153.7793,"ARG_OF_PERICENTER":188.8725,"MEAN_ANOMALY":174.2308,"EPHEMERIS_TYPE":0,"CLASSIFICATION_TYPE":"U","NORAD_CAT_ID":39008,"ELEMENT_SET_NO":999,"REV_AT_EPOCH":4870,"BSTAR":0,"MEAN_MOTION_DOT":-2.83e-6,"MEAN_MOTION_DDOT":0},{"OBJECT_NAME":"ZHONGXING-12","OBJECT_ID":"2012-067A","EPOCH":"2026-03-15T00:19:44.569920","MEAN_MOTION":1.00271863,"ECCENTRICITY":0.00033749,"INCLINATION":0.0314,"RA_OF_ASC_NODE":112.8654,"ARG_OF_PERICENTER":246.3225,"MEAN_ANOMALY":265.8651,"EPHEMERIS_TYPE":0,"CLASSIFICATION_TYPE":"U","NORAD_CAT_ID":39017,"ELEMENT_SET_NO":999,"REV_AT_EPOCH":4856,"BSTAR":0,"MEAN_MOTION_DOT":-2.07e-6,"MEAN_MOTION_DDOT":0},{"OBJECT_NAME":"EUTELSAT 70B","OBJECT_ID":"2012-069A","EPOCH":"2026-03-15T05:13:38.521344","MEAN_MOTION":1.00271748,"ECCENTRICITY":0.00019535,"INCLINATION":0.0644,"RA_OF_ASC_NODE":2.7145,"ARG_OF_PERICENTER":338.0688,"MEAN_ANOMALY":340.92,"EPHEMERIS_TYPE":0,"CLASSIFICATION_TYPE":"U","NORAD_CAT_ID":39020,"ELEMENT_SET_NO":999,"REV_AT_EPOCH":4856,"BSTAR":0,"MEAN_MOTION_DOT":-4.4e-7,"MEAN_MOTION_DDOT":0},{"OBJECT_NAME":"YAMAL 402","OBJECT_ID":"2012-070A","EPOCH":"2026-03-15T05:18:30.917952","MEAN_MOTION":1.00271739,"ECCENTRICITY":0.00039691,"INCLINATION":1.0211,"RA_OF_ASC_NODE":85.4276,"ARG_OF_PERICENTER":268.8444,"MEAN_ANOMALY":313.07,"EPHEMERIS_TYPE":0,"CLASSIFICATION_TYPE":"U","NORAD_CAT_ID":39022,"ELEMENT_SET_NO":999,"REV_AT_EPOCH":4845,"BSTAR":0,"MEAN_MOTION_DOT":8.6e-7,"MEAN_MOTION_DDOT":0},{"OBJECT_NAME":"SKYNET 5D","OBJECT_ID":"2012-075A","EPOCH":"2026-03-15T05:17:53.478240","MEAN_MOTION":1.00272908,"ECCENTRICITY":0.00039205,"INCLINATION":0.0703,"RA_OF_ASC_NODE":359.6167,"ARG_OF_PERICENTER":356.3484,"MEAN_ANOMALY":309.0462,"EPHEMERIS_TYPE":0,"CLASSIFICATION_TYPE":"U","NORAD_CAT_ID":39034,"ELEMENT_SET_NO":999,"REV_AT_EPOCH":4821,"BSTAR":0,"MEAN_MOTION_DOT":9.9e-7,"MEAN_MOTION_DDOT":0},{"OBJECT_NAME":"MEXSAT 3","OBJECT_ID":"2012-075B","EPOCH":"2026-03-15T04:30:05.559840","MEAN_MOTION":1.00272068,"ECCENTRICITY":0.00013467,"INCLINATION":0.0101,"RA_OF_ASC_NODE":168.2804,"ARG_OF_PERICENTER":187.7053,"MEAN_ANOMALY":129.4987,"EPHEMERIS_TYPE":0,"CLASSIFICATION_TYPE":"U","NORAD_CAT_ID":39035,"ELEMENT_SET_NO":999,"REV_AT_EPOCH":611,"BSTAR":0,"MEAN_MOTION_DOT":-2.6e-7,"MEAN_MOTION_DDOT":0},{"OBJECT_NAME":"TDRS 11","OBJECT_ID":"2013-004A","EPOCH":"2026-03-15T07:30:17.713728","MEAN_MOTION":1.00266182,"ECCENTRICITY":0.0004218,"INCLINATION":3.3836,"RA_OF_ASC_NODE":29.5646,"ARG_OF_PERICENTER":343.097,"MEAN_ANOMALY":98.5456,"EPHEMERIS_TYPE":0,"CLASSIFICATION_TYPE":"U","NORAD_CAT_ID":39070,"ELEMENT_SET_NO":999,"REV_AT_EPOCH":4575,"BSTAR":0,"MEAN_MOTION_DOT":8.1e-7,"MEAN_MOTION_DDOT":0},{"OBJECT_NAME":"AMAZONAS 3","OBJECT_ID":"2013-006A","EPOCH":"2026-03-15T01:20:01.287744","MEAN_MOTION":1.0027119,"ECCENTRICITY":0.00022105,"INCLINATION":0.0302,"RA_OF_ASC_NODE":217.7446,"ARG_OF_PERICENTER":121.9076,"MEAN_ANOMALY":152.0016,"EPHEMERIS_TYPE":0,"CLASSIFICATION_TYPE":"U","NORAD_CAT_ID":39078,"ELEMENT_SET_NO":999,"REV_AT_EPOCH":4397,"BSTAR":0,"MEAN_MOTION_DOT":-2.83e-6,"MEAN_MOTION_DDOT":0},{"OBJECT_NAME":"AZERSPACE 1","OBJECT_ID":"2013-006B","EPOCH":"2026-03-15T05:15:53.669088","MEAN_MOTION":1.00270931,"ECCENTRICITY":0.00011205,"INCLINATION":0.0255,"RA_OF_ASC_NODE":148.0647,"ARG_OF_PERICENTER":240.9963,"MEAN_ANOMALY":268.735,"EPHEMERIS_TYPE":0,"CLASSIFICATION_TYPE":"U","NORAD_CAT_ID":39079,"ELEMENT_SET_NO":999,"REV_AT_EPOCH":4786,"BSTAR":0,"MEAN_MOTION_DOT":0,"MEAN_MOTION_DDOT":0},{"OBJECT_NAME":"SBIRS GEO-2 (USA 241)","OBJECT_ID":"2013-011A","EPOCH":"2026-03-14T21:57:50.676768","MEAN_MOTION":1.00271709,"ECCENTRICITY":0.00022987,"INCLINATION":4.2851,"RA_OF_ASC_NODE":52.3948,"ARG_OF_PERICENTER":299.368,"MEAN_ANOMALY":100.4104,"EPHEMERIS_TYPE":0,"CLASSIFICATION_TYPE":"U","NORAD_CAT_ID":39120,"ELEMENT_SET_NO":999,"REV_AT_EPOCH":4759,"BSTAR":0,"MEAN_MOTION_DOT":-2.84e-6,"MEAN_MOTION_DDOT":0},{"OBJECT_NAME":"EUTELSAT 117 WEST A","OBJECT_ID":"2013-012A","EPOCH":"2026-03-15T06:12:10.770336","MEAN_MOTION":1.00272726,"ECCENTRICITY":0.00028904,"INCLINATION":0.0327,"RA_OF_ASC_NODE":292.391,"ARG_OF_PERICENTER":71.5336,"MEAN_ANOMALY":145.1711,"EPHEMERIS_TYPE":0,"CLASSIFICATION_TYPE":"U","NORAD_CAT_ID":39122,"ELEMENT_SET_NO":999,"REV_AT_EPOCH":4749,"BSTAR":0,"MEAN_MOTION_DOT":-1.4e-7,"MEAN_MOTION_DDOT":0},{"OBJECT_NAME":"ANIK G1","OBJECT_ID":"2013-014A","EPOCH":"2026-03-15T06:14:55.506624","MEAN_MOTION":1.00272155,"ECCENTRICITY":0.00026907,"INCLINATION":0.0267,"RA_OF_ASC_NODE":249.7091,"ARG_OF_PERICENTER":85.2084,"MEAN_ANOMALY":184.3661,"EPHEMERIS_TYPE":0,"CLASSIFICATION_TYPE":"U","NORAD_CAT_ID":39127,"ELEMENT_SET_NO":999,"REV_AT_EPOCH":4731,"BSTAR":0,"MEAN_MOTION_DOT":-7.5e-7,"MEAN_MOTION_DDOT":0},{"OBJECT_NAME":"ZHONGXING-11","OBJECT_ID":"2013-020A","EPOCH":"2026-03-13T20:59:37.697568","MEAN_MOTION":1.0026905,"ECCENTRICITY":0.00010173,"INCLINATION":0.0296,"RA_OF_ASC_NODE":21.4968,"ARG_OF_PERICENTER":20.1576,"MEAN_ANOMALY":182.644,"EPHEMERIS_TYPE":0,"CLASSIFICATION_TYPE":"U","NORAD_CAT_ID":39157,"ELEMENT_SET_NO":999,"REV_AT_EPOCH":4694,"BSTAR":0,"MEAN_MOTION_DOT":-2.9e-6,"MEAN_MOTION_DDOT":0},{"OBJECT_NAME":"EUTELSAT 7B","OBJECT_ID":"2013-022A","EPOCH":"2026-03-15T05:04:47.233920","MEAN_MOTION":1.00271407,"ECCENTRICITY":0.00062622,"INCLINATION":0.0667,"RA_OF_ASC_NODE":352.9787,"ARG_OF_PERICENTER":6.7879,"MEAN_ANOMALY":256.2307,"EPHEMERIS_TYPE":0,"CLASSIFICATION_TYPE":"U","NORAD_CAT_ID":39163,"ELEMENT_SET_NO":999,"REV_AT_EPOCH":4700,"BSTAR":0,"MEAN_MOTION_DOT":4.7e-7,"MEAN_MOTION_DDOT":0},{"OBJECT_NAME":"WGS F5 (USA 243)","OBJECT_ID":"2013-024A","EPOCH":"2026-03-15T06:30:31.510656","MEAN_MOTION":1.00271523,"ECCENTRICITY":2.954e-5,"INCLINATION":0.0086,"RA_OF_ASC_NODE":155.4657,"ARG_OF_PERICENTER":266.5733,"MEAN_ANOMALY":155.969,"EPHEMERIS_TYPE":0,"CLASSIFICATION_TYPE":"U","NORAD_CAT_ID":39168,"ELEMENT_SET_NO":999,"REV_AT_EPOCH":4623,"BSTAR":0,"MEAN_MOTION_DOT":-2.85e-6,"MEAN_MOTION_DDOT":0}]
